{
  "type": "FeatureCollection",
  "features": [
    {
      "type": "Feature",
      "properties": {
        "norad_id": 66909,
        "name": "SILVERSAT",
        "group": "stations",
        "lat": 17.737209454955863,
        "lon": 88.2703761171533,
        "alt_km": 403.6991416666988,
        "timestamp": "2025-12-26T13:39:17.702501+00:00",
        "meta_object_name": "SILVERSAT",
        "meta_object_id": "1998-067XV",
        "meta_epoch": "2025-12-26T05:50:15.051264",
        "meta_mean_motion": 15.5347206,
        "meta_eccentricity": 0.00038112,
        "meta_inclination": 51.6312,
        "meta_ra_of_asc_node": 75.214,
        "meta_arg_of_pericenter": 312.9233,
        "meta_mean_anomaly": 47.1437,
        "meta_ephemeris_type": 0,
        "meta_classification_type": "U",
        "meta_norad_cat_id": 66909,
        "meta_element_set_no": 999,
        "meta_rev_at_epoch": 371,
        "meta_bstar": 0.0010732725,
        "meta_mean_motion_dot": 0.00069517,
        "meta_mean_motion_ddot": 0,
        "tle_line1": "1 66909U 98067XV  25360.24322976  .00069517  00000+0  10733-2 0  9994",
        "tle_line2": "2 66909  51.6312  75.2140 0003811 312.9233  47.1437 15.53472060  3715"
      },
      "geometry": {
        "type": "Point",
        "coordinates": [
          88.2703761171533,
          17.737209454955863
        ]
      }
    },
    {
      "type": "Feature",
      "properties": {
        "norad_id": 66910,
        "name": "1998-067XW",
        "group": "stations",
        "lat": 24.299223287680743,
        "lon": 94.5318720388397,
        "alt_km": 404.6074362482186,
        "timestamp": "2025-12-26T13:39:17.702511+00:00",
        "meta_object_name": "1998-067XW",
        "meta_object_id": "1998-067XW",
        "meta_epoch": "2025-12-26T05:47:57.385824",
        "meta_mean_motion": 15.53373617,
        "meta_eccentricity": 0.00037621,
        "meta_inclination": 51.6294,
        "meta_ra_of_asc_node": 75.2017,
        "meta_arg_of_pericenter": 284.0151,
        "meta_mean_anomaly": 76.0421,
        "meta_ephemeris_type": 0,
        "meta_classification_type": "U",
        "meta_norad_cat_id": 66910,
        "meta_element_set_no": 999,
        "meta_rev_at_epoch": 371,
        "meta_bstar": 0.00096718956,
        "meta_mean_motion_dot": 0.00062317,
        "meta_mean_motion_ddot": 0,
        "tle_line1": "1 66910U 98067XW  25360.24163641  .00062317  00000+0  96719-3 0  9998",
        "tle_line2": "2 66910  51.6294  75.2017 0003762 284.0151  76.0421 15.53373617  3714"
      },
      "geometry": {
        "type": "Point",
        "coordinates": [
          94.5318720388397,
          24.299223287680743
        ]
      }
    },
    {
      "type": "Feature",
      "properties": {
        "norad_id": 66911,
        "name": "1998-067XX",
        "group": "stations",
        "lat": 40.473683886135326,
        "lon": 116.0579763382614,
        "alt_km": 400.9525655927482,
        "timestamp": "2025-12-26T13:39:17.702520+00:00",
        "meta_object_name": "1998-067XX",
        "meta_object_id": "1998-067XX",
        "meta_epoch": "2025-12-26T05:41:53.748960",
        "meta_mean_motion": 15.53922498,
        "meta_eccentricity": 0.00035122,
        "meta_inclination": 51.63,
        "meta_ra_of_asc_node": 75.1744,
        "meta_arg_of_pericenter": 292.0313,
        "meta_mean_anomaly": 68.0304,
        "meta_ephemeris_type": 0,
        "meta_classification_type": "U",
        "meta_norad_cat_id": 66911,
        "meta_element_set_no": 999,
        "meta_rev_at_epoch": 370,
        "meta_bstar": 0.0011417936,
        "meta_mean_motion_dot": 0.00075265,
        "meta_mean_motion_ddot": 0,
        "tle_line1": "1 66911U 98067XX  25360.23742765  .00075265  00000+0  11418-2 0  9996",
        "tle_line2": "2 66911  51.6300  75.1744 0003512 292.0313  68.0304 15.53922498  3708"
      },
      "geometry": {
        "type": "Point",
        "coordinates": [
          116.0579763382614,
          40.473683886135326
        ]
      }
    },
    {
      "type": "Feature",
      "properties": {
        "norad_id": 66912,
        "name": "1998-067XY",
        "group": "stations",
        "lat": -18.510151271037053,
        "lon": 58.30608537491118,
        "alt_km": 410.09646127922497,
        "timestamp": "2025-12-26T13:39:17.702531+00:00",
        "meta_object_name": "1998-067XY",
        "meta_object_id": "1998-067XY",
        "meta_epoch": "2025-12-26T06:01:58.635840",
        "meta_mean_motion": 15.52460987,
        "meta_eccentricity": 0.00038345,
        "meta_inclination": 51.6312,
        "meta_ra_of_asc_node": 75.2679,
        "meta_arg_of_pericenter": 300.6282,
        "meta_mean_anomaly": 59.433,
        "meta_ephemeris_type": 0,
        "meta_classification_type": "U",
        "meta_norad_cat_id": 66912,
        "meta_element_set_no": 999,
        "meta_rev_at_epoch": 370,
        "meta_bstar": 0.00077856856,
        "meta_mean_motion_dot": 0.0004835,
        "meta_mean_motion_ddot": 0,
        "tle_line1": "1 66912U 98067XY  25360.25137310  .00048350  00000+0  77857-3 0  9998",
        "tle_line2": "2 66912  51.6312  75.2679 0003834 300.6282  59.4330 15.52460987  3700"
      },
      "geometry": {
        "type": "Point",
        "coordinates": [
          58.30608537491118,
          -18.510151271037053
        ]
      }
    }
  ]
}